QIANFAN-89              
1 63175U 25046S   25324.28700520  .00000091  00000+0  12271-3 0  9994
2 63175  88.9752 322.3638 0016172 184.0878 176.0144 13.50978162 44376
QIANFAN-90              
1 63176U 25046T   25324.24168537  .00000018  00000+0  94601-5 0  9995
2 63176  88.9752 322.3409 0013196 180.8552 179.2579 13.50974671 44388
QIANFAN-91              
1 66033U 25233A   25324.26773541  .00000465  00000+0  23438-3 0  9991
2 66033  88.9956  64.6267 0017871 105.1701 255.1465 14.14597386  4836
QIANFAN-92              
1 66034U 25233B   25323.98575050  .00000580  00000+0  28950-3 0  9997
2 66034  88.9962  64.6600 0017071 107.1052 253.2007 14.15477507  4797
QIANFAN-93              
1 66035U 25233C   25324.19101359  .00000288  00000+0  14072-3 0  9994
2 66035  88.9973  64.6359 0017288 105.6983 254.6113 14.15208219  4826
QIANFAN-94              
1 66036U 25233D   25324.19461960  .00000537  00000+0  27059-3 0  9998
2 66036  88.9968  64.6366 0016030 106.3971 253.8980 14.14904122  4826
QIANFAN-95              
1 66037U 25233E   25324.23033512  .00000737  00000+0  30130-3 0  9998
2 66037  88.9964  64.6228 0016378 108.4634 251.8341 14.26187295  4831
QIANFAN-96              
1 66038U 25233F   25323.63099887  .00000563  00000+0  28434-3 0  9990
2 66038  88.9964  64.7002 0017308 110.0634 250.2418 14.14828605  4748
